NORAD_CAT_ID,OBJECT_NAME,OBJECT_TYPE,EPOCH,MEAN_MOTION,ECCENTRICITY,INCLINATION,RA_OF_ASC_NODE,ARG_OF_PERICENTER,MEAN_ANOMALY,BSTAR,MEAN_MOTION_DOT,MEAN_MOTION_DDOT,TLE_LINE0,TLE_LINE1,TLE_LINE2,SEMIMAJOR_AXIS,PERIOD,APOGEE,PERIGEE,DECAYED
54209.0,STARLINK-5259,PAYLOAD,2023-11-04 11:26:19,15.08845805,0.0001485,53.2167,227.4701,88.5581,271.5582,0.00017167,2.446e-05,0.0,0 STARLINK-5259,1 54209U 22141BE  23308.47661784  .00002446  00000-0  17167-3 0  9990,2 54209  53.2167 227.4701 0001485  88.5581 271.5582 15.08845805 56883,6917.863,95.437,540.755,538.7,0.0
54209.0,STARLINK-5259,PAYLOAD,2023-11-04 22:34:02,15.08838191,0.0001683,53.2181,225.3919,103.6982,256.4198,4.1219e-05,3.68e-06,0.0,0 STARLINK-5259,1 54209U 22141BE  23308.94030201  .00000368  00000-0  41219-4 0  9993,2 54209  53.2181 225.3919 0001683 103.6982 256.4198 15.08838191 56954,6917.886,95.438,540.915,538.587,0.0
54209.0,STARLINK-5259,PAYLOAD,2023-11-05 03:20:10,15.08855992,0.0001366,53.2165,224.494,81.22,278.8947,0.00029162,4.358e-05,0.0,0 STARLINK-5259,1 54209U 22141BE  23309.13901302  .00004358  00000-0  29162-3 0  9999,2 54209  53.2165 224.4940 0001366  81.2200 278.8947 15.08855992 57210,6917.832,95.437,540.641,538.752,0.0
54209.0,STARLINK-5259,PAYLOAD,2023-11-05 11:17:06,15.08849236,0.0001394,53.2166,223.0097,95.5347,264.5804,0.00020261,2.939e-05,0.0,0 STARLINK-5259,1 54209U 22141BE  23309.47021454  .00002939  00000-0  20261-3 0  9991,2 54209  53.2166 223.0097 0001394  95.5347 264.5804 15.08849236 57263,6917.852,95.437,540.682,538.753,0.0
54209.0,STARLINK-5259,PAYLOAD,2023-11-05 22:24:47,15.0886596,8.7e-05,53.2169,220.9237,100.9649,259.1441,0.00034041,5.138e-05,0.0,0 STARLINK-5259,1 54209U 22141BE  23309.93388220  .00005138  00000-0  34041-3 0  9994,2 54209  53.2169 220.9237 0000870 100.9649 259.1441 15.08865960 57104,6917.801,95.436,540.268,539.064,0.0
54209.0,STARLINK-5259,PAYLOAD,2023-11-06 03:10:55,15.08902875,0.0001463,53.2164,220.0338,125.5668,234.5461,0.0010169,0.00015961,0.0,0 STARLINK-5259,1 54209U 22141BE  23310.13258383  .00015961  00000-0  10169-2 0  9993,2 54209  53.2164 220.0338 0001463 125.5668 234.5461 15.08902875 57369,6917.688,95.434,540.565,538.541,0.0
54209.0,STARLINK-5259,PAYLOAD,2023-11-06 20:40:12,15.08822731,0.0001419,53.2165,216.7628,165.4749,194.6284,-0.00044654,-7.384e-05,0.0,0 STARLINK-5259,1 54209U 22141BE  23310.86125155 -.00007384  00000-0 -44654-3 0  9992,2 54209  53.2165 216.7628 0001419 165.4749 194.6284 15.08822731 57246,6917.933,95.439,540.78,538.817,0.0
54209.0,STARLINK-5259,PAYLOAD,2023-11-07 03:01:47,15.08760425,0.0001397,53.2157,215.5734,97.335,262.7801,-0.0016082,-0.00025736,0.0,0 STARLINK-5259,1 54209U 22141BE  23311.12624292 -.00025736  00000-0 -16082-2 0  9992,2 54209  53.2157 215.5734 0001397  97.3350 262.7801 15.08760425 57511,6918.124,95.443,540.955,539.022,0.0
54209.0,STARLINK-5259,PAYLOAD,2023-11-07 10:58:41,15.08809462,9.45e-05,53.2165,214.0889,183.6473,176.4512,-0.00042176,-6.988e-05,0.0,0 STARLINK-5259,1 54209U 22141BE  23311.45742995 -.00006988  00000-0 -42176-3 0  9991,2 54209  53.2165 214.0889 0000945 183.6473 176.4512 15.08809462 57568,6917.974,95.439,540.492,539.185,0.0
54209.0,STARLINK-5259,PAYLOAD,2023-11-08 02:52:31,15.08872543,0.0001418,53.2163,211.1165,124.5565,235.5561,0.00027814,4.145e-05,0.0,0 STARLINK-5259,1 54209U 22141BE  23312.11981318  .00004145  00000-0  27814-3 0  9992,2 54209  53.2163 211.1165 0001418 124.5565 235.5561 15.08872543 57665,6917.781,95.435,540.627,538.665,0.0
54209.0,STARLINK-5259,PAYLOAD,2023-11-08 21:57:13,15.087963,9.68e-05,53.2164,207.5506,77.4039,282.7061,0.00080622,0.00012551,0.0,0 STARLINK-5259,1 54209U 22141BE  23312.91473723  .00012551  00000-0  80622-3 0  9992,2 54209  53.2164 207.5506 0000968  77.4039 282.7061 15.08796300 57558,6918.014,95.44,540.549,539.209,0.0
54209.0,STARLINK-5259,PAYLOAD,2023-11-08 23:32:35,15.08827363,0.000113,53.2163,207.2533,121.0813,239.029,0.00099266,0.0001554,0.0,0 STARLINK-5259,1 54209U 22141BE  23312.98096192  .00015540  00000-0  99266-3 0  9995,2 54209  53.2163 207.2533 0001130 121.0813 239.0290 15.08827363 57791,6917.919,95.438,540.566,539.002,0.0
54209.0,STARLINK-5259,PAYLOAD,2023-11-09 21:47:58,15.08850063,0.0001299,53.2166,203.0903,107.4508,252.6626,-1.6936e-05,-5.58e-06,0.0,0 STARLINK-5259,1 54209U 22141BE  23313.90831318 -.00000558  00000-0 -16936-4 0  9994,2 54209  53.2166 203.0903 0001299 107.4508 252.6626 15.08850063 57702,6917.85,95.437,540.613,538.816,0.0
54209.0,STARLINK-5259,PAYLOAD,2023-11-09 23:23:20,15.08888418,0.0001296,53.2174,202.7906,135.0241,225.0857,-0.00041959,-6.968e-05,0.0,0 STARLINK-5259,1 54209U 22141BE  23313.97453893 -.00006968  00000-0 -41959-3 0  9992,2 54209  53.2174 202.7906 0001296 135.0241 225.0857 15.08888418 57949,6917.732,95.434,540.494,538.701,0.0
54209.0,STARLINK-5259,PAYLOAD,2023-11-10 20:03:21,15.08842141,0.0001415,53.217,198.9237,110.412,249.7024,8.0951e-05,1.001e-05,0.0,0 STARLINK-5259,1 54209U 22141BE  23314.83567106  .00001001  00000-0  80951-4 0  9998,2 54209  53.2170 198.9237 0001415 110.4120 249.7024 15.08842141 58071,6917.874,95.437,540.718,538.76,0.0
54209.0,STARLINK-5259,PAYLOAD,2023-11-11 02:24:52,15.08863962,0.0001322,53.2167,197.7327,100.5618,259.5523,0.00024721,3.651e-05,0.0,0 STARLINK-5259,1 54209U 22141BE  23315.10061006  .00003651  00000-0  24721-3 0  9992,2 54209  53.2167 197.7327 0001322 100.5618 259.5523 15.08863962 58115,6917.807,95.436,540.587,538.758,0.0
54209.0,STARLINK-5259,PAYLOAD,2023-11-11 08:46:24,15.08870616,0.0001332,53.2168,196.544,97.4355,262.6788,0.00028155,4.199e-05,0.0,0 STARLINK-5259,1 54209U 22141BE  23315.36556165  .00004199  00000-0  28155-3 0  9998,2 54209  53.2168 196.5440 0001332  97.4355 262.6788 15.08870616 57922,6917.787,95.436,540.573,538.73,0.0
54209.0,STARLINK-5259,PAYLOAD,2023-11-11 19:54:09,15.08828335,0.0001428,53.2166,194.4612,96.2687,263.8468,-6.5598e-05,-1.331e-05,0.0,0 STARLINK-5259,1 54209U 22141BE  23315.82927244 -.00001331  00000-0 -65598-4 0  9999,2 54209  53.2166 194.4612 0001428  96.2687 263.8468 15.08828335 58222,6917.916,95.438,540.769,538.793,0.0
54209.0,STARLINK-5259,PAYLOAD,2023-11-11 21:29:32,15.08827828,0.000144,53.2168,194.1638,96.627,263.4886,-7.2874e-05,-1.447e-05,0.0,0 STARLINK-5259,1 54209U 22141BE  23315.89551252 -.00001447  00000-0 -72874-4 0  9991,2 54209  53.2168 194.1638 0001440  96.6270 263.4886 15.08827828 58007,6917.918,95.438,540.779,538.786,0.0
54209.0,STARLINK-5259,PAYLOAD,2023-11-11 23:04:55,15.08828454,0.0001344,53.2168,193.8669,90.0385,270.0761,-7.7034e-05,-1.513e-05,0.0,0 STARLINK-5259,1 54209U 22141BE  23315.96175258 -.00001513  00000-0 -77034-4 0  9994,2 54209  53.2168 193.8669 0001344  90.0385 270.0761 15.08828454 58018,6917.916,95.438,540.71,538.851,0.0
54209.0,STARLINK-5259,PAYLOAD,2023-11-12 22:55:42,15.08832157,0.0001389,53.2165,189.4072,97.9816,262.1334,-5.1077e-05,-1.101e-05,0.0,0 STARLINK-5259,1 54209U 22141BE  23316.95535427 -.00001101  00000-0 -51077-4 0  9994,2 54209  53.2165 189.4072 0001389  97.9816 262.1334 15.08832157 58167,6917.904,95.438,540.73,538.808,0.0
54209.0,STARLINK-5259,PAYLOAD,2023-11-13 00:31:05,15.08833036,0.000142,53.2168,189.1096,96.6286,263.4868,-2.6315e-05,-7.07e-06,0.0,0 STARLINK-5259,1 54209U 22141BE  23317.02159346 -.00000707  00000-0 -26315-4 0  9993,2 54209  53.2168 189.1096 0001420  96.6286 263.4868 15.08833036 58406,6917.902,95.438,540.749,538.784,0.0
54209.0,STARLINK-5259,PAYLOAD,2023-11-13 08:28:00,15.08847306,0.0001446,53.2172,187.6234,89.6101,270.5057,-0.00016627,-2.934e-05,0.0,0 STARLINK-5259,1 54209U 22141BE  23317.35278766 -.00002934  00000-0 -16627-3 0  9995,2 54209  53.2172 187.6234 0001446  89.6101 270.5057 15.08847306 58453,6917.858,95.437,540.723,538.723,0.0
54209.0,STARLINK-5259,PAYLOAD,2023-11-14 08:18:47,15.08832946,9.42e-05,53.2171,183.163,93.2954,266.8146,0.00018448,2.649e-05,0.0,0 STARLINK-5259,1 54209U 22141BE  23318.34638841  .00002649  00000-0  18448-3 0  9993,2 54209  53.2171 183.1630 0000942  93.2954 266.8146 15.08832946 58608,6917.902,95.438,540.419,539.115,0.0
54209.0,STARLINK-5259,PAYLOAD,2023-11-14 17:51:07,15.08832601,0.0001167,53.2172,181.3786,93.4255,266.6871,8.0779e-05,9.98e-06,0.0,0 STARLINK-5259,1 54209U 22141BE  23318.74383559  .00000998  00000-0  80779-4 0  9992,2 54209  53.2172 181.3786 0001167  93.4255 266.6871 15.08832601 58439,6917.903,95.438,540.575,538.961,0.0
54209.0,STARLINK-5259,PAYLOAD,2023-11-15 20:52:39,15.08859874,0.0001494,53.2157,176.3242,87.7025,272.4138,-0.00023728,-4.064e-05,0.0,0 STARLINK-5259,1 54209U 22141BE  23319.86990634 -.00004064  00000-0 -23728-3 0  9994,2 54209  53.2157 176.3242 0001494  87.7025 272.4138 15.08859874 58608,6917.82,95.436,540.718,538.651,0.0
54209.0,STARLINK-5259,PAYLOAD,2023-11-16 00:03:26,15.08840564,0.0001437,53.2166,175.7277,94.7703,265.3453,9.6118e-05,1.242e-05,0.0,0 STARLINK-5259,1 54209U 22141BE  23320.00239305  .00001242  00000-0  96118-4 0  9990,2 54209  53.2166 175.7277 0001437  94.7703 265.3453 15.08840564 58851,6917.879,95.438,540.738,538.75,0.0
54209.0,STARLINK-5259,PAYLOAD,2023-11-16 20:43:27,15.08835651,0.0001404,53.2168,171.8611,95.6299,264.4853,5.52e-05,5.91e-06,0.0,0 STARLINK-5259,1 54209U 22141BE  23320.86351814  .00000591  00000-0  55200-4 0  9997,2 54209  53.2168 171.8611 0001404  95.6299 264.4853 15.08835651 58750,6917.894,95.438,540.73,538.787,0.0
54209.0,STARLINK-5259,PAYLOAD,2023-11-16 23:54:14,15.088377,0.0001455,53.217,171.2652,100.7084,259.4071,6.4458e-05,7.38e-06,0.0,0 STARLINK-5259,1 54209U 22141BE  23320.99599665  .00000738  00000-0  64458-4 0  9997,2 54209  53.2170 171.2652 0001455 100.7084 259.4071 15.08837700 59000,6917.887,95.438,540.759,538.746,0.0
54209.0,STARLINK-5259,PAYLOAD,2023-11-17 20:34:14,15.08843833,0.0001368,53.2166,167.4009,91.9183,268.1966,6.9061e-05,8.11e-06,0.0,0 STARLINK-5259,1 54209U 22141BE  23321.85711256  .00000811  00000-0  69061-4 0  9992,2 54209  53.2166 167.4009 0001368  91.9183 268.1966 15.08843833 58904,6917.869,95.437,540.68,538.787,0.0
